NORAD_CAT_ID,OBJECT_NAME,OBJECT_TYPE,EPOCH,MEAN_MOTION,ECCENTRICITY,INCLINATION,RA_OF_ASC_NODE,ARG_OF_PERICENTER,MEAN_ANOMALY,BSTAR,MEAN_MOTION_DOT,MEAN_MOTION_DDOT,TLE_LINE0,TLE_LINE1,TLE_LINE2,SEMIMAJOR_AXIS,PERIOD,APOGEE,PERIGEE,DECAYED
54811.0,STARLINK-5424,PAYLOAD,2024-02-13 18:49:35,15.08854443,0.0001333,53.2158,173.0652,91.0624,269.0521,0.00012756,1.744e-05,0.0,0 STARLINK-5424,1 54811U 22175BF  24044.78443650  .00001744  00000-0  12756-3 0  9997,2 54811  53.2158 173.0652 0001333  91.0624 269.0521 15.08854443 64075,6917.836,95.437,540.623,538.779,0.0
54811.0,STARLINK-5424,PAYLOAD,2024-02-14 12:18:51,15.08837392,0.0001381,53.2163,169.7881,84.2945,275.8204,9.0842e-06,-1.43e-06,0.0,0 STARLINK-5424,1 54811U 22175BF  24045.51309219 -.00000143  00000-0  90842-5 0  9998,2 54811  53.2163 169.7881 0001381  84.2945 275.8204 15.08837392 64189,6917.888,95.438,540.709,538.798,0.0
54811.0,STARLINK-5424,PAYLOAD,2024-02-14 15:29:37,15.08838187,0.0001371,53.2173,169.203,99.4468,260.6679,4.8541e-05,4.85e-06,0.0,0 STARLINK-5424,1 54811U 22175BF  24045.64557106  .00000485  00000-0  48541-4 0  9998,2 54811  53.2173 169.2030 0001371  99.4468 260.6679 15.08838187 66361,6917.886,95.438,540.699,538.802,0.0
54811.0,STARLINK-5424,PAYLOAD,2024-02-15 12:09:39,15.08823136,0.0001287,53.2177,165.3368,85.8482,274.2657,-9.4889e-05,-1.797e-05,0.0,0 STARLINK-5424,1 54811U 22175BF  24046.50670964 -.00001797  00000-0 -94889-4 0  9997,2 54811  53.2177 165.3368 0001287  85.8482 274.2657 15.08823136 64337,6917.932,95.439,540.687,538.907,0.0
54811.0,STARLINK-5424,PAYLOAD,2024-02-15 13:45:02,15.0882831,0.0001454,53.2166,165.0361,87.1663,272.9496,-0.00012868,-2.335e-05,0.0,0 STARLINK-5424,1 54811U 22175BF  24046.57294733 -.00002335  00000-0 -12868-3 0  9995,2 54811  53.2166 165.0361 0001454  87.1663 272.9496 15.08828310 66503,6917.916,95.438,540.787,538.775,0.0
54811.0,STARLINK-5424,PAYLOAD,2024-02-15 15:20:25,15.08831884,0.0001328,53.2161,164.7382,86.6844,273.43,-9.813e-05,-1.849e-05,0.0,0 STARLINK-5424,1 54811U 22175BF  24046.63918424 -.00001849  00000-0 -98130-4 0  9998,2 54811  53.2161 164.7382 0001328  86.6844 273.4300 15.08831884 64353,6917.905,95.438,540.689,538.851,0.0
54811.0,STARLINK-5424,PAYLOAD,2024-02-16 00:52:43,15.08841198,0.0001428,53.217,162.9549,89.7337,270.3819,-5.0382e-05,-1.09e-05,0.0,0 STARLINK-5424,1 54811U 22175BF  24047.03661787 -.00001090  00000-0 -50382-4 0  9995,2 54811  53.2170 162.9549 0001428  89.7337 270.3819 15.08841198 64417,6917.877,95.437,540.73,538.754,0.0
54811.0,STARLINK-5424,PAYLOAD,2024-02-16 12:00:24,15.08848539,0.0001373,53.2174,160.8749,81.2256,278.8892,0.00019628,2.838e-05,0.0,0 STARLINK-5424,1 54811U 22175BF  24047.50028930  .00002838  00000-0  19628-3 0  9990,2 54811  53.2174 160.8749 0001373  81.2256 278.8892 15.08848539 64483,6917.854,95.437,540.669,538.769,0.0
54811.0,STARLINK-5424,PAYLOAD,2024-02-16 13:35:47,15.08850723,0.0001267,53.2165,160.5775,79.8197,280.2938,0.00020821,3.028e-05,0.0,0 STARLINK-5424,1 54811U 22175BF  24047.56652718  .00003028  00000-0  20821-3 0  9992,2 54811  53.2165 160.5775 0001267  79.8197 280.2938 15.08850723 66655,6917.848,95.437,540.589,538.836,0.0
54811.0,STARLINK-5424,PAYLOAD,2024-02-17 11:51:13,15.0883458,0.0001388,53.216,156.4136,82.2611,277.8539,0.00021129,3.076e-05,0.0,0 STARLINK-5424,1 54811U 22175BF  24048.49390179  .00003076  00000-0  21129-3 0  9990,2 54811  53.2160 156.4136 0001388  82.2611 277.8539 15.08834580 64636,6917.897,95.438,540.722,538.802,0.0
54811.0,STARLINK-5424,PAYLOAD,2024-02-17 13:26:36,15.08839148,0.0001632,53.2181,156.1154,86.5747,273.5432,0.00017321,2.47e-05,0.0,0 STARLINK-5424,1 54811U 22175BF  24048.56014021  .00002470  00000-0  17321-3 0  9993,2 54811  53.2181 156.1154 0001632  86.5747 273.5432 15.08839148 66806,6917.883,95.438,540.877,538.619,0.0
54811.0,STARLINK-5424,PAYLOAD,2024-02-17 16:37:22,15.08841337,0.0001617,53.218,155.52,89.0437,271.074,0.00017552,2.507e-05,0.0,0 STARLINK-5424,1 54811U 22175BF  24048.69261854  .00002507  00000-0  17552-3 0  9992,2 54811  53.2180 155.5200 0001617  89.0437 271.0740 15.08841337 66827,6917.876,95.437,540.86,538.623,0.0
54811.0,STARLINK-5424,PAYLOAD,2024-02-18 13:17:22,15.0885338,0.0001397,53.2153,151.6548,91.8906,268.2246,7.7808e-05,9.51e-06,0.0,0 STARLINK-5424,1 54811U 22175BF  24049.55373129  .00000951  00000-0  77808-4 0  9999,2 54811  53.2153 151.6548 0001397  91.8906 268.2246 15.08853380 66950,6917.839,95.437,540.671,538.738,0.0
54811.0,STARLINK-5424,PAYLOAD,2024-02-19 11:32:46,15.08841354,0.0001436,53.217,147.4925,104.5585,255.5566,4.2831e-05,3.94e-06,0.0,0 STARLINK-5424,1 54811U 22175BF  24050.48109945  .00000394  00000-0  42831-4 0  9995,2 54811  53.2170 147.4925 0001436 104.5585 255.5566 15.08841354 64938,6917.876,95.437,540.735,538.748,0.0
54811.0,STARLINK-5424,PAYLOAD,2024-02-19 13:08:10,15.08841039,0.0001427,53.217,147.1954,99.2491,260.8662,3.7861e-05,3.15e-06,0.0,0 STARLINK-5424,1 54811U 22175BF  24050.54733983  .00000315  00000-0  37861-4 0  9997,2 54811  53.2170 147.1954 0001427  99.2491 260.8662 15.08841039 67101,6917.877,95.437,540.729,538.755,0.0
54811.0,STARLINK-5424,PAYLOAD,2024-02-19 16:18:56,15.08840574,0.0001463,53.2172,146.5982,101.2051,258.9106,5.2446e-05,5.47e-06,0.0,0 STARLINK-5424,1 54811U 22175BF  24050.67981965  .00000547  00000-0  52446-4 0  9999,2 54811  53.2172 146.5982 0001463 101.2051 258.9106 15.08840574 67129,6917.879,95.438,540.756,538.732,0.0
54811.0,STARLINK-5424,PAYLOAD,2024-02-20 11:23:34,15.08837434,0.0001301,53.2175,143.0339,94.3785,265.7356,7.0779e-05,8.39e-06,0.0,0 STARLINK-5424,1 54811U 22175BF  24051.47470454  .00000839  00000-0  70779-4 0  9997,2 54811  53.2175 143.0339 0001301  94.3785 265.7356 15.08837434 65084,6917.888,95.438,540.653,538.853,0.0
54811.0,STARLINK-5424,PAYLOAD,2024-02-20 12:58:57,15.08842799,0.0001338,53.2166,142.7359,92.3228,267.7917,4.673e-05,4.56e-06,0.0,0 STARLINK-5424,1 54811U 22175BF  24051.54094151  .00000456  00000-0  46730-4 0  9996,2 54811  53.2166 142.7359 0001338  92.3228 267.7917 15.08842799 67258,6917.872,95.437,540.662,538.811,0.0
54811.0,STARLINK-5424,PAYLOAD,2024-02-21 12:49:44,15.08842605,0.0001378,53.2164,138.2776,96.3496,263.7653,0.00016397,2.323e-05,0.0,0 STARLINK-5424,1 54811U 22175BF  24052.53454173  .00002323  00000-0  16397-3 0  9990,2 54811  53.2164 138.2776 0001378  96.3496 263.7653 15.08842605 65240,6917.872,95.437,540.691,538.784,0.0
54811.0,STARLINK-5424,PAYLOAD,2024-02-22 11:05:08,15.08835896,0.0001356,53.2167,134.1156,103.511,256.6033,9.9092e-05,1.289e-05,0.0,0 STARLINK-5424,1 54811U 22175BF  24053.46190859  .00001289  00000-0  99092-4 0  9995,2 54811  53.2167 134.1156 0001356 103.5110 256.6033 15.08835896 65382,6917.893,95.438,540.696,538.82,0.0
54811.0,STARLINK-5424,PAYLOAD,2024-02-22 12:40:31,15.08839469,0.0001366,53.2165,133.8182,101.1706,258.944,9.7588e-05,1.266e-05,0.0,0 STARLINK-5424,1 54811U 22175BF  24053.52814638  .00001266  00000-0  97588-4 0  9993,2 54811  53.2165 133.8182 0001366 101.1706 258.9440 15.08839469 67559,6917.882,95.438,540.692,538.802,0.0
54811.0,STARLINK-5424,PAYLOAD,2024-02-23 10:55:55,15.08844734,0.0001426,53.2163,129.6542,103.8091,256.306,0.00012083,1.636e-05,0.0,0 STARLINK-5424,1 54811U 22175BF  24054.45550158  .00001636  00000-0  12083-3 0  9997,2 54811  53.2163 129.6542 0001426 103.8091 256.3060 15.08844734 65530,6917.866,95.437,540.717,538.744,0.0
54811.0,STARLINK-5424,PAYLOAD,2024-02-23 12:31:18,15.08849704,0.0001527,53.2163,129.3567,99.779,260.3375,0.00012429,1.691e-05,0.0,0 STARLINK-5424,1 54811U 22175BF  24054.52173899  .00001691  00000-0  12429-3 0  9993,2 54811  53.2163 129.3567 0001527  99.7790 260.3375 15.08849704 67702,6917.851,95.437,540.772,538.659,0.0
54811.0,STARLINK-5424,PAYLOAD,2024-02-23 22:03:37,15.08843128,0.0001483,53.2168,127.5701,86.9046,273.2116,0.00010627,1.404e-05,0.0,0 STARLINK-5424,1 54811U 22175BF  24054.91918339  .00001404  00000-0  10627-3 0  9992,2 54811  53.2168 127.5701 0001483  86.9046 273.2116 15.08843128 67766,6917.871,95.437,540.762,538.71,0.0
54811.0,STARLINK-5424,PAYLOAD,2024-02-24 04:25:10,15.08841255,0.0001527,53.2165,126.3853,83.2418,276.8748,7.399e-05,8.9e-06,0.0,0 STARLINK-5424,1 54811U 22175BF  24055.18414633  .00000890  00000-0  73990-4 0  9991,2 54811  53.2165 126.3853 0001527  83.2418 276.8748 15.08841255 65644,6917.877,95.437,540.798,538.685,0.0
54811.0,STARLINK-5424,PAYLOAD,2024-02-24 10:46:43,15.08836319,0.0001464,53.2165,125.192,91.6519,268.4641,1.2988e-05,-8.1e-07,0.0,0 STARLINK-5424,1 54811U 22175BF  24055.44911107 -.00000081  00000-0  12988-4 0  9991,2 54811  53.2165 125.1920 0001464  91.6519 268.4641 15.08836319 65689,6917.892,95.438,540.769,538.744,0.0
54811.0,STARLINK-5424,PAYLOAD,2024-02-24 12:22:06,15.08838296,0.0001674,53.2169,124.8954,81.1304,278.9877,4.524e-05,4.32e-06,0.0,0 STARLINK-5424,1 54811U 22175BF  24055.51535019  .00000432  00000-0  45240-4 0  9999,2 54811  53.2169 124.8954 0001674  81.1304 278.9877 15.08838296 67859,6917.886,95.438,540.909,538.593,0.0
54811.0,STARLINK-5424,PAYLOAD,2024-02-25 04:15:56,15.08848658,0.0001516,53.2159,121.9203,94.3715,265.745,3.6303e-05,2.9e-06,0.0,0 STARLINK-5424,1 54811U 22175BF  24056.17774282  .00000290  00000-0  36303-4 0  9991,2 54811  53.2159 121.9203 0001516  94.3715 265.7450 15.08848658 65795,6917.854,95.437,540.768,538.67,0.0
54811.0,STARLINK-5424,PAYLOAD,2024-02-25 13:48:14,15.08861061,0.0001525,53.2155,120.1349,94.555,265.5617,0.00015329,2.154e-05,0.0,0 STARLINK-5424,1 54811U 22175BF  24056.57517060  .00002154  00000-0  15329-3 0  9999,2 54811  53.2155 120.1349 0001525  94.5550 265.5617 15.08861061 68016,6917.816,95.436,540.736,538.626,0.0
54811.0,STARLINK-5424,PAYLOAD,2024-02-26 04:06:44,15.08837021,0.0001515,53.2146,117.4599,75.1278,284.9882,0.00013914,1.927e-05,0.0,0 STARLINK-5424,1 54811U 22175BF  24057.17134791  .00001927  00000-0  13914-3 0  9997,2 54811  53.2146 117.4599 0001515  75.1278 284.9882 15.08837021 65940,6917.889,95.438,540.803,538.706,0.0
